QIANFAN-33              
1 61566U 24185Q   26195.11944367  .00000181  00000+0  12059-3 0  9991
2 61566  88.9794  55.0203 0008762  33.8833 326.2902 13.96719300 98940
QIANFAN-34              
1 61567U 24185R   26195.13657625  .00000113  00000+0  64820-4 0  9991
2 61567  88.9773  54.2996 0006932  32.9189 327.2421 14.02483658 99264
QIANFAN-35              
1 61568U 24185S   26195.11673543  .00000348  00000+0  13364-3 0  9993
2 61568  88.9799  51.8359 0004710 323.2887  36.7984 14.28297160100631
QIANFAN-36              
1 61569U 24185T   26195.12984231  .00000074  00000+0  88923-4 0  9994
2 61569  88.9772  58.8096 0007526 129.6684 230.5135 13.55639935 96836
QIANFAN-37              
1 62238U 24232B   26195.14650038  .00000057  00000+0  69538-4 0  9990
2 62238  89.0066  19.8759 0001963 108.2622 251.8743 13.51011247127983
QIANFAN-38              
1 62239U 24232C   26195.17119513  .00000046  00000+0  53185-4 0  9991
2 62239  89.0073  19.8038 0012737 303.1873  56.8056 13.51007828128045
QIANFAN-39              
1 62240U 24232D   26195.17473177  .00000084  00000+0  29129-4 0  9995
2 62240  89.0060  12.9916 0018516  98.5856 261.7436 14.25532217131791
QIANFAN-40              
1 62241U 24232E   26195.20406912  .00000038  00000+0  40588-4 0  9994
2 62241  89.0100  19.4445 0011969 312.5987  47.4154 13.51009371128414
QIANFAN-41              
1 62242U 24232F   26195.13822635  .00000064  00000+0  80932-4 0  9997
2 62242  89.0070  19.7546 0012081 299.0754  60.9187 13.51012270128062
QIANFAN-42              
1 62243U 24232G   26195.16826589  .00000086  00000+0  30587-4 0  9998
2 62243  89.0058  13.0711 0017310 104.4381 255.8734 14.24620744131750
QIANFAN-43              
1 62244U 24232H   26195.13410641  .00000053  00000+0  64004-4 0  9999
2 62244  89.0075  19.8298 0013724 304.4848  55.5006 13.51011712 96675
QIANFAN-44              
1 62245U 24232J   26195.19577281  .00000028  00000+0  24667-4 0  9993
2 62245  89.0073  19.6308 0011879 301.5772  58.4219 13.51013520128153
QIANFAN-45              
1 62246U 24232K   26195.16294772  .00000037  00000+0  38600-4 0  9994
2 62246  89.0077  19.7883 0012536 301.0028  58.9891 13.51010962128076
QIANFAN-46              
1 62247U 24232L   26195.18760266  .00000025  00000+0  20322-4 0  9992
2 62247  89.0073  19.8461 0012707 307.2296  52.7695 13.51011632128036
QIANFAN-47              
1 62248U 24232M   26195.19173221  .00000041  00000+0  44484-4 0  9996
2 62248  89.0069  19.7701 0013103 306.0479  53.9457 13.51011126128069
QIANFAN-48              
1 62249U 24232N   26195.15455698  .00000043  00000+0  48789-4 0  9998
2 62249  89.0073  19.7839 0015415 308.3301  51.6463 13.51015747128069
