{"fetched_at":"2026-07-14T17:40:26.806Z","source":"https://celestrak.org/NORAD/elements/gp.php?GROUP=qianfan&FORMAT=JSON","constellation":"qianfan","records":[{"OBJECT_NAME":"QIANFAN-33","OBJECT_ID":"2024-185Q","EPOCH":"2026-07-14T02:51:59.933088","CLASSIFICATION_TYPE":"U","MEAN_MOTION":13.967193,"ECCENTRICITY":0.0008762,"INCLINATION":88.9794,"RA_OF_ASC_NODE":55.0203,"ARG_OF_PERICENTER":33.8833,"MEAN_ANOMALY":326.2902,"EPHEMERIS_TYPE":0,"NORAD_CAT_ID":61566,"ELEMENT_SET_NO":999,"REV_AT_EPOCH":9894,"BSTAR":0.00012059,"MEAN_MOTION_DOT":0.00000181,"MEAN_MOTION_DDOT":0},{"OBJECT_NAME":"QIANFAN-34","OBJECT_ID":"2024-185R","EPOCH":"2026-07-14T03:16:40.188000","CLASSIFICATION_TYPE":"U","MEAN_MOTION":14.02483658,"ECCENTRICITY":0.0006932,"INCLINATION":88.9773,"RA_OF_ASC_NODE":54.2996,"ARG_OF_PERICENTER":32.9189,"MEAN_ANOMALY":327.2421,"EPHEMERIS_TYPE":0,"NORAD_CAT_ID":61567,"ELEMENT_SET_NO":999,"REV_AT_EPOCH":9926,"BSTAR":0.00006482,"MEAN_MOTION_DOT":0.00000113,"MEAN_MOTION_DDOT":0},{"OBJECT_NAME":"QIANFAN-35","OBJECT_ID":"2024-185S","EPOCH":"2026-07-14T02:48:05.941152","CLASSIFICATION_TYPE":"U","MEAN_MOTION":14.2829716,"ECCENTRICITY":0.000471,"INCLINATION":88.9799,"RA_OF_ASC_NODE":51.8359,"ARG_OF_PERICENTER":323.2887,"MEAN_ANOMALY":36.7984,"EPHEMERIS_TYPE":0,"NORAD_CAT_ID":61568,"ELEMENT_SET_NO":999,"REV_AT_EPOCH":10063,"BSTAR":0.00013364,"MEAN_MOTION_DOT":0.00000348,"MEAN_MOTION_DDOT":0},{"OBJECT_NAME":"QIANFAN-36","OBJECT_ID":"2024-185T","EPOCH":"2026-07-14T03:06:58.375584","CLASSIFICATION_TYPE":"U","MEAN_MOTION":13.55639935,"ECCENTRICITY":0.0007526,"INCLINATION":88.9772,"RA_OF_ASC_NODE":58.8096,"ARG_OF_PERICENTER":129.6684,"MEAN_ANOMALY":230.5135,"EPHEMERIS_TYPE":0,"NORAD_CAT_ID":61569,"ELEMENT_SET_NO":999,"REV_AT_EPOCH":9683,"BSTAR":0.000088923,"MEAN_MOTION_DOT":7.4e-7,"MEAN_MOTION_DDOT":0},{"OBJECT_NAME":"QIANFAN-37","OBJECT_ID":"2024-232B","EPOCH":"2026-07-14T03:30:57.632832","CLASSIFICATION_TYPE":"U","MEAN_MOTION":13.51011247,"ECCENTRICITY":0.0001963,"INCLINATION":89.0066,"RA_OF_ASC_NODE":19.8759,"ARG_OF_PERICENTER":108.2622,"MEAN_ANOMALY":251.8743,"EPHEMERIS_TYPE":0,"NORAD_CAT_ID":62238,"ELEMENT_SET_NO":999,"REV_AT_EPOCH":12798,"BSTAR":0.000069538,"MEAN_MOTION_DOT":5.7e-7,"MEAN_MOTION_DDOT":0},{"OBJECT_NAME":"QIANFAN-38","OBJECT_ID":"2024-232C","EPOCH":"2026-07-14T04:06:31.259232","CLASSIFICATION_TYPE":"U","MEAN_MOTION":13.51007828,"ECCENTRICITY":0.0012737,"INCLINATION":89.0073,"RA_OF_ASC_NODE":19.8038,"ARG_OF_PERICENTER":303.1873,"MEAN_ANOMALY":56.8056,"EPHEMERIS_TYPE":0,"NORAD_CAT_ID":62239,"ELEMENT_SET_NO":999,"REV_AT_EPOCH":12804,"BSTAR":0.000053185,"MEAN_MOTION_DOT":4.6e-7,"MEAN_MOTION_DDOT":0},{"OBJECT_NAME":"QIANFAN-39","OBJECT_ID":"2024-232D","EPOCH":"2026-07-14T04:11:36.824928","CLASSIFICATION_TYPE":"U","MEAN_MOTION":14.25532217,"ECCENTRICITY":0.0018516,"INCLINATION":89.006,"RA_OF_ASC_NODE":12.9916,"ARG_OF_PERICENTER":98.5856,"MEAN_ANOMALY":261.7436,"EPHEMERIS_TYPE":0,"NORAD_CAT_ID":62240,"ELEMENT_SET_NO":999,"REV_AT_EPOCH":13179,"BSTAR":0.000029129,"MEAN_MOTION_DOT":8.4e-7,"MEAN_MOTION_DDOT":0},{"OBJECT_NAME":"QIANFAN-40","OBJECT_ID":"2024-232E","EPOCH":"2026-07-14T04:53:51.571968","CLASSIFICATION_TYPE":"U","MEAN_MOTION":13.51009371,"ECCENTRICITY":0.0011969,"INCLINATION":89.01,"RA_OF_ASC_NODE":19.4445,"ARG_OF_PERICENTER":312.5987,"MEAN_ANOMALY":47.4154,"EPHEMERIS_TYPE":0,"NORAD_CAT_ID":62241,"ELEMENT_SET_NO":999,"REV_AT_EPOCH":12841,"BSTAR":0.000040588,"MEAN_MOTION_DOT":3.8e-7,"MEAN_MOTION_DDOT":0},{"OBJECT_NAME":"QIANFAN-41","OBJECT_ID":"2024-232F","EPOCH":"2026-07-14T03:19:02.756640","CLASSIFICATION_TYPE":"U","MEAN_MOTION":13.5101227,"ECCENTRICITY":0.0012081,"INCLINATION":89.007,"RA_OF_ASC_NODE":19.7546,"ARG_OF_PERICENTER":299.0754,"MEAN_ANOMALY":60.9187,"EPHEMERIS_TYPE":0,"NORAD_CAT_ID":62242,"ELEMENT_SET_NO":999,"REV_AT_EPOCH":12806,"BSTAR":0.000080932,"MEAN_MOTION_DOT":6.4e-7,"MEAN_MOTION_DDOT":0},{"OBJECT_NAME":"QIANFAN-42","OBJECT_ID":"2024-232G","EPOCH":"2026-07-14T04:02:18.172896","CLASSIFICATION_TYPE":"U","MEAN_MOTION":14.24620744,"ECCENTRICITY":0.001731,"INCLINATION":89.0058,"RA_OF_ASC_NODE":13.0711,"ARG_OF_PERICENTER":104.4381,"MEAN_ANOMALY":255.8734,"EPHEMERIS_TYPE":0,"NORAD_CAT_ID":62243,"ELEMENT_SET_NO":999,"REV_AT_EPOCH":13175,"BSTAR":0.000030587,"MEAN_MOTION_DOT":8.6e-7,"MEAN_MOTION_DDOT":0},{"OBJECT_NAME":"QIANFAN-43","OBJECT_ID":"2024-232H","EPOCH":"2026-07-14T03:13:06.793824","CLASSIFICATION_TYPE":"U","MEAN_MOTION":13.51011712,"ECCENTRICITY":0.0013724,"INCLINATION":89.0075,"RA_OF_ASC_NODE":19.8298,"ARG_OF_PERICENTER":304.4848,"MEAN_ANOMALY":55.5006,"EPHEMERIS_TYPE":0,"NORAD_CAT_ID":62244,"ELEMENT_SET_NO":999,"REV_AT_EPOCH":9667,"BSTAR":0.000064004,"MEAN_MOTION_DOT":5.3e-7,"MEAN_MOTION_DDOT":0},{"OBJECT_NAME":"QIANFAN-44","OBJECT_ID":"2024-232J","EPOCH":"2026-07-14T04:41:54.770784","CLASSIFICATION_TYPE":"U","MEAN_MOTION":13.5101352,"ECCENTRICITY":0.0011879,"INCLINATION":89.0073,"RA_OF_ASC_NODE":19.6308,"ARG_OF_PERICENTER":301.5772,"MEAN_ANOMALY":58.4219,"EPHEMERIS_TYPE":0,"NORAD_CAT_ID":62245,"ELEMENT_SET_NO":999,"REV_AT_EPOCH":12815,"BSTAR":0.000024667,"MEAN_MOTION_DOT":2.8e-7,"MEAN_MOTION_DDOT":0},{"OBJECT_NAME":"QIANFAN-45","OBJECT_ID":"2024-232K","EPOCH":"2026-07-14T03:54:38.683008","CLASSIFICATION_TYPE":"U","MEAN_MOTION":13.51010962,"ECCENTRICITY":0.0012536,"INCLINATION":89.0077,"RA_OF_ASC_NODE":19.7883,"ARG_OF_PERICENTER":301.0028,"MEAN_ANOMALY":58.9891,"EPHEMERIS_TYPE":0,"NORAD_CAT_ID":62246,"ELEMENT_SET_NO":999,"REV_AT_EPOCH":12807,"BSTAR":0.0000386,"MEAN_MOTION_DOT":3.7e-7,"MEAN_MOTION_DDOT":0},{"OBJECT_NAME":"QIANFAN-46","OBJECT_ID":"2024-232L","EPOCH":"2026-07-14T04:30:08.869824","CLASSIFICATION_TYPE":"U","MEAN_MOTION":13.51011632,"ECCENTRICITY":0.0012707,"INCLINATION":89.0073,"RA_OF_ASC_NODE":19.8461,"ARG_OF_PERICENTER":307.2296,"MEAN_ANOMALY":52.7695,"EPHEMERIS_TYPE":0,"NORAD_CAT_ID":62247,"ELEMENT_SET_NO":999,"REV_AT_EPOCH":12803,"BSTAR":0.000020322,"MEAN_MOTION_DOT":2.5e-7,"MEAN_MOTION_DDOT":0},{"OBJECT_NAME":"QIANFAN-47","OBJECT_ID":"2024-232M","EPOCH":"2026-07-14T04:36:05.662944","CLASSIFICATION_TYPE":"U","MEAN_MOTION":13.51011126,"ECCENTRICITY":0.0013103,"INCLINATION":89.0069,"RA_OF_ASC_NODE":19.7701,"ARG_OF_PERICENTER":306.0479,"MEAN_ANOMALY":53.9457,"EPHEMERIS_TYPE":0,"NORAD_CAT_ID":62248,"ELEMENT_SET_NO":999,"REV_AT_EPOCH":12806,"BSTAR":0.000044484,"MEAN_MOTION_DOT":4.1e-7,"MEAN_MOTION_DDOT":0},{"OBJECT_NAME":"QIANFAN-48","OBJECT_ID":"2024-232N","EPOCH":"2026-07-14T03:42:33.723072","CLASSIFICATION_TYPE":"U","MEAN_MOTION":13.51015747,"ECCENTRICITY":0.0015415,"INCLINATION":89.0073,"RA_OF_ASC_NODE":19.7839,"ARG_OF_PERICENTER":308.3301,"MEAN_ANOMALY":51.6463,"EPHEMERIS_TYPE":0,"NORAD_CAT_ID":62249,"ELEMENT_SET_NO":999,"REV_AT_EPOCH":12806,"BSTAR":0.000048789,"MEAN_MOTION_DOT":4.3e-7,"MEAN_MOTION_DDOT":0}]}
